OBJECT_NAME,OBJECT_ID,EPOCH,MEAN_MOTION,ECCENTRICITY,INCLINATION,RA_OF_ASC_NODE,ARG_OF_PERICENTER,MEAN_ANOMALY,EPHEMERIS_TYPE,CLASSIFICATION_TYPE,NORAD_CAT_ID,ELEMENT_SET_NO,REV_AT_EPOCH,BSTAR,MEAN_MOTION_DOT,MEAN_MOTION_DDOT
GPS BIIR-5  (PRN 22),2000-040A,2026-06-17T07:08:07.315296,2.00557636,.01210386,54.8513,215.1579,302.4732,60.8472,0,U,26407,999,18995,0,.4E-6,0
GPS BIIR-8  (PRN 16),2003-005A,2026-06-17T05:41:05.841024,2.00560527,.01479284,54.8821,214.9670,53.0827,42.5968,0,U,27663,999,17131,0,.41E-6,0
GPS BIIR-11 (PRN 19),2004-009A,2026-06-17T09:42:22.087584,2.00554656,.01161589,54.8295,275.6785,173.0888,196.7015,0,U,28190,999,16295,0,-.37E-6,0
GPS BIIR-13 (PRN 02),2004-045A,2026-06-17T07:49:03.162720,2.00555797,.01698644,55.1354,324.8903,316.4138,61.5041,0,U,28474,999,15843,0,-.84E-6,0
GPS BIIRM-1 (PRN 17),2005-038A,2026-06-17T08:33:38.351232,2.00565592,.0127864,54.8779,273.1707,296.1609,67.8202,0,U,28874,999,15184,0,-.33E-6,0
INMARSAT 4-F2 (SOUTHPAN/PRN 122),2005-044A,2026-06-16T13:41:44.680992,1.00270373,.0002784,5.0944,43.7017,34.7252,175.3347,0,U,28899,999,7551,0,-.266E-5,0
GPS BIIRM-2 (PRN 31),2006-042A,2026-06-17T03:06:21.017952,2.00569795,.01066171,54.7108,151.3412,54.4149,43.9226,0,U,29486,999,14439,0,.46E-6,0
GPS BIIRM-3 (PRN 12),2006-052A,2026-06-16T10:06:35.618112,2.00557832,.00852186,54.9348,214.0365,90.8278,270.2339,0,U,29601,999,14339,0,.54E-6,0
GPS BIIRM-4 (PRN 15),2007-047A,2026-06-16T05:27:46.728288,2.00555202,.01667436,54.0946,80.1052,87.3620,274.5508,0,U,32260,999,13679,0,-.35E-6,0
COSMOS 2433 (720),2007-052A,2026-06-16T21:58:29.337312,2.13104055,.00024802,65.5769,315.9430,193.3676,166.6110,0,U,32275,999,14505,0,-.55E-6,0
COSMOS 2432 (719),2007-052B,2026-06-16T12:23:35.378016,2.13103061,.00076789,65.5946,316.0841,331.5202,26.0613,0,U,32276,999,14506,0,-.55E-6,0
GPS BIIRM-5 (PRN 29),2007-062A,2026-06-16T12:50:22.410240,2.00560015,.00357024,55.0322,274.1789,165.2122,184.0447,0,U,32384,999,13549,0,-.29E-6,0
COSMOS 2434 (721),2007-065A,2026-06-17T03:43:05.101824,2.13101292,.00011976,64.3178,191.9169,336.0402,97.3647,0,U,32393,999,14377,0,.65E-6,0
COSMOS 2436 (723),2007-065C,2026-06-13T06:12:49.161312,2.13100224,.0017212,64.3263,192.1203,354.2143,102.6396,0,U,32395,999,14364,0,.116E-5,0
GPS BIIRM-6 (PRN 07),2008-012A,2026-06-17T03:16:01.746048,2.00572367,.02112575,54.4974,149.9267,247.8479,109.8706,0,U,32711,999,13375,0,.44E-6,0
GPS BIIRM-8 (PRN 05),2009-043A,2026-06-16T06:48:23.933376,2.00554227,.0053768,56.2097,27.4871,83.1336,31.1253,0,U,35752,999,12334,0,-.73E-6,0
COSMOS 2456 (730),2009-070A,2026-06-16T03:42:15.751008,2.13103756,.00046558,65.0107,71.0074,330.9231,213.0207,0,U,36111,999,12840,0,-.23E-6,0
COSMOS 2457 (733),2009-070B,2026-06-17T07:56:12.645024,2.13101091,.00028888,64.9968,70.8113,122.9969,10.8129,0,U,36112,999,12843,0,-.23E-6,0
COSMOS 2460 (732),2010-007C,2026-06-13T20:48:05.350176,2.13101719,.00021218,65.4226,314.5793,106.9290,251.4243,0,U,36402,999,12665,0,-.52E-6,0
GPS BIIF-1  (PRN 25),2010-022A,2026-06-16T12:34:16.701888,2.00562332,.01263085,54.2702,208.5888,66.1160,340.2016,0,U,36585,999,11758,0,.55E-6,0
BEIDOU-2 IGSO-1 (C06),2010-036A,2026-06-15T22:07:28.195104,1.00272283,.00592987,54.3019,162.9711,225.1772,315.5729,0,U,36828,999,5808,0,-.73E-6,0
BEIDOU-2 G4 (C04),2010-057A,2026-06-17T00:19:35.190336,1.00270672,.00053073,3.6462,68.9422,196.5483,164.6792,0,U,37210,999,5729,0,-.118E-5,0
BEIDOU-2 IGSO-2 (C07),2010-068A,2026-06-15T20:29:59.130240,1.00282881,.0055907,47.5513,271.8488,212.6889,194.9404,0,U,37256,999,5678,0,-.214E-5,0
BEIDOU-2 IGSO-3 (C08),2011-013A,2026-06-14T14:04:06.536928,1.00267759,.00343713,62.4034,40.1764,184.2029,357.3112,0,U,37384,999,5563,0,-.189E-5,0
GSAT-8 (GAGAN/PRN 127),2011-022A,2026-06-16T22:23:57.909696,1.00271222,.00022316,2.1309,81.8310,199.7115,14.7281,0,U,37605,999,5321,0,.8E-6,0
BEIDOU-2 IGSO-4 (C09),2011-038A,2026-06-16T16:27:02.962080,1.00285273,.01595197,54.6000,165.6770,231.4431,207.9860,0,U,37763,999,5464,0,.19E-6,0
GSAT0101 (GALILEO-PFM),2011-060A,2026-06-12T17:48:57.349152,1.70475562,.00031174,56.9957,341.8816,51.3749,308.6629,0,U,37846,999,9104,0,-.71E-6,0
GSAT0102 (GALILEO-FM2),2011-060B,2026-06-15T14:11:42.824832,1.70475803,.00031675,56.9958,341.8048,14.2663,339.9688,0,U,37847,999,9109,0,-.84E-6,0
COSMOS 2476 (744),2011-064A,2026-06-17T04:12:32.141664,2.13103764,.00227086,65.2699,72.8721,238.8351,276.7340,0,U,37867,999,11376,0,-.21E-6,0
COSMOS 2477 (745),2011-064B,2026-06-16T12:07:32.659968,2.13102984,.00198117,65.2758,72.9741,240.2954,301.5120,0,U,37868,999,11374,0,-.21E-6,0
COSMOS 2475 (743),2011-064C,2026-06-13T05:06:46.528128,2.13101955,.00255895,65.2809,73.1067,253.3203,237.9576,0,U,37869,999,11368,0,-.31E-6,0
